start=new Date('2022-09-13T00:00:00.000Z').valueOf();
sats=[{"PERIOD":"95.591","MEAN_MOTION_DOT":"0.00000479","MEAN_ANOMALY":"291.8575","ARG_OF_PERICENTER":"68.2577","RA_OF_ASC_NODE":"238.9316","EPOCH":"2022-09-13T02:43:56.322912","ECCENTRICITY":"0.00015340","MEAN_MOTION":"15.06414503","CLASSIFICATION_TYPE":"U","COUNTRY_CODE":"US","OBJECT_NAME":"STARLINK-2375","TIME_SYSTEM":"UTC","MEAN_MOTION_DDOT":"0.0000000000000","MEAN_ELEMENT_THEORY":"SGP4","INCLINATION":"53.0522","GP_ID":"212435368","DECAY_DATE":null,"REF_FRAME":"TEME","TLE_LINE2":"2 47914  53.0522 238.9316 0001534  68.2577 291.8575 15.06414503 83607","OBJECT_ID":"2021-021BG","EPHEMERIS_TYPE":"0","ELEMENT_SET_NO":"999","SITE":"AFETR","PERIAPSIS":"546.107","REV_AT_EPOCH":"8360","CENTER_NAME":"EARTH","SEMIMAJOR_AXIS":"6925.304","APOAPSIS":"548.231","BSTAR":"0.00005103300000","OBJECT_TYPE":"PAYLOAD","LAUNCH_DATE":"2021-03-14","RCS_SIZE":"LARGE","TLE_LINE1":"1 47914U 21021BG  22256.11384633  .00000479  00000-0  51033-4 0  9993","FILE":"3570574","NORAD_CAT_ID":"47914"},{"OBJECT_NAME":"STARLINK-2376","COUNTRY_CODE":"US","CLASSIFICATION_TYPE":"U","MEAN_MOTION":"15.06406015","ECCENTRICITY":"0.00012870","GP_ID":"212435144","INCLINATION":"53.0526","MEAN_ELEMENT_THEORY":"SGP4","MEAN_MOTION_DDOT":"0.0000000000000","TIME_SYSTEM":"UTC","ARG_OF_PERICENTER":"75.8911","MEAN_ANOMALY":"284.2221","MEAN_MOTION_DOT":"0.00001902","PERIOD":"95.592","EPOCH":"2022-09-13T02:41:56.899104","RA_OF_ASC_NODE":"233.9245","OBJECT_TYPE":"PAYLOAD","LAUNCH_DATE":"2021-03-14","BSTAR":"0.00014653000000","APOAPSIS":"548.086","NORAD_CAT_ID":"47915","FILE":"3570574","TLE_LINE1":"1 47915U 21021BH  22256.11246411  .00001902  00000-0  14653-3 0  9993","RCS_SIZE":"LARGE","EPHEMERIS_TYPE":"0","OBJECT_ID":"2021-021BH","TLE_LINE2":"2 47915  53.0526 233.9245 0001287  75.8911 284.2221 15.06406015 83680","REF_FRAME":"TEME","DECAY_DATE":null,"SEMIMAJOR_AXIS":"6925.330","CENTER_NAME":"EARTH","REV_AT_EPOCH":"8368","PERIAPSIS":"546.304","SITE":"AFETR","ELEMENT_SET_NO":"999"},{"PERIAPSIS":"546.200","SITE":"AFETR","ELEMENT_SET_NO":"999","SEMIMAJOR_AXIS":"6925.337","CENTER_NAME":"EARTH","REV_AT_EPOCH":"8432","REF_FRAME":"TEME","DECAY_DATE":null,"TLE_LINE2":"2 47916  53.0546 219.9534 0001447  75.6905 284.4245 15.06403875 84328","OBJECT_ID":"2021-021BJ","EPHEMERIS_TYPE":"0","TLE_LINE1":"1 47916U 21021BJ  22255.88716569  .00001257  00000-0  10326-3 0  9999","RCS_SIZE":"LARGE","FILE":"3570509","NORAD_CAT_ID":"47916","APOAPSIS":"548.204","BSTAR":"0.00010326000000","LAUNCH_DATE":"2021-03-14","OBJECT_TYPE":"PAYLOAD","RA_OF_ASC_NODE":"219.9534","EPOCH":"2022-09-12T21:17:31.115616","MEAN_MOTION_DOT":"0.00001257","PERIOD":"95.592","MEAN_ANOMALY":"284.4245","ARG_OF_PERICENTER":"75.6905","TIME_SYSTEM":"UTC","MEAN_MOTION_DDOT":"0.0000000000000","INCLINATION":"53.0546","MEAN_ELEMENT_THEORY":"SGP4","GP_ID":"212430733","MEAN_MOTION":"15.06403875","ECCENTRICITY":"0.00014470","CLASSIFICATION_TYPE":"U","COUNTRY_CODE":"US","OBJECT_NAME":"STARLINK-2378"},{"BSTAR":"0.00001973900000","LAUNCH_DATE":"2021-03-14","OBJECT_TYPE":"PAYLOAD","APOAPSIS":"548.172","FILE":"3570189","NORAD_CAT_ID":"47917","RCS_SIZE":"LARGE","TLE_LINE1":"1 47917U 21021BK  22255.42918951  .00000013  00000-0  19739-4 0  9996","OBJECT_ID":"2021-021BK","EPHEMERIS_TYPE":"0","DECAY_DATE":null,"REF_FRAME":"TEME","TLE_LINE2":"2 47917  53.0534 231.9897 0001395  79.1938 280.9208 15.06402583 84100","CENTER_NAME":"EARTH","REV_AT_EPOCH":"8410","SEMIMAJOR_AXIS":"6925.341","SITE":"AFETR","ELEMENT_SET_NO":"999","PERIAPSIS":"546.240","COUNTRY_CODE":"US","OBJECT_NAME":"STARLINK-2397","ECCENTRICITY":"0.00013950","MEAN_MOTION":"15.06402583","CLASSIFICATION_TYPE":"U","MEAN_ELEMENT_THEORY":"SGP4","INCLINATION":"53.0534","GP_ID":"212398638","TIME_SYSTEM":"UTC","MEAN_MOTION_DDOT":"0.0000000000000","MEAN_ANOMALY":"280.9208","ARG_OF_PERICENTER":"79.1938","PERIOD":"95.592","MEAN_MOTION_DOT":"0.00000013","RA_OF_ASC_NODE":"231.9897","EPOCH":"2022-09-12T10:18:01.973664"},{"CLASSIFICATION_TYPE":"U","MEAN_MOTION":"15.06406542","ECCENTRICITY":"0.00014640","OBJECT_NAME":"STARLINK-2398","COUNTRY_CODE":"US","MEAN_MOTION_DDOT":"0.0000000000000","TIME_SYSTEM":"UTC","GP_ID":"212430240","INCLINATION":"53.0544","MEAN_ELEMENT_THEORY":"SGP4","MEAN_MOTION_DOT":"0.00000835","PERIOD":"95.592","ARG_OF_PERICENTER":"73.1696","MEAN_ANOMALY":"286.9454","EPOCH":"2022-09-12T21:37:25.267296","RA_OF_ASC_NODE":"229.8890","APOAPSIS":"548.207","OBJECT_TYPE":"PAYLOAD","LAUNCH_DATE":"2021-03-14","BSTAR":"0.00007495900000","TLE_LINE1":"1 47918U 21021BL  22255.90098689  .00000835  00000-0  74959-4 0  9994","RCS_SIZE":"LARGE","FILE":"3570509","NORAD_CAT_ID":"47918","TLE_LINE2":"2 47918  53.0544 229.8890 0001464  73.1696 286.9454 15.06406542 84202","REF_FRAME":"TEME","DECAY_DATE":null,"EPHEMERIS_TYPE":"0","OBJECT_ID":"2021-021BL","PERIAPSIS":"546.180","SITE":"AFETR","ELEMENT_SET_NO":"999","SEMIMAJOR_AXIS":"6925.329","CENTER_NAME":"EARTH","REV_AT_EPOCH":"8420"},{"PERIAPSIS":"546.171","SITE":"AFETR","ELEMENT_SET_NO":"999","SEMIMAJOR_AXIS":"6925.353","REV_AT_EPOCH":"8401","CENTER_NAME":"EARTH","TLE_LINE2":"2 47919  53.0549 240.8419 0001512  69.8489 290.2663 15.06398441 84011","DECAY_DATE":null,"REF_FRAME":"TEME","EPHEMERIS_TYPE":"0","OBJECT_ID":"2021-021BM","TLE_LINE1":"1 47919U 21021BM  22255.68628200  .00001964  00000-0  15070-3 0  9990","RCS_SIZE":"LARGE","NORAD_CAT_ID":"47919","FILE":"3570509","APOAPSIS":"548.265","LAUNCH_DATE":"2021-03-14","OBJECT_TYPE":"PAYLOAD","BSTAR":"0.00015070000000","EPOCH":"2022-09-12T16:28:14.764800","RA_OF_ASC_NODE":"240.8419","MEAN_MOTION_DOT":"0.00001964","PERIOD":"95.592","ARG_OF_PERICENTER":"69.8489","MEAN_ANOMALY":"290.2663","MEAN_MOTION_DDOT":"0.0000000000000","TIME_SYSTEM":"UTC","GP_ID":"212430490","INCLINATION":"53.0549","MEAN_ELEMENT_THEORY":"SGP4","CLASSIFICATION_TYPE":"U","MEAN_MOTION":"15.06398441","ECCENTRICITY":"0.00015120","OBJECT_NAME":"STARLINK-2405","COUNTRY_CODE":"US"},{"MEAN_MOTION_DDOT":"0.0000000000000","TIME_SYSTEM":"UTC","GP_ID":"212406207","MEAN_ELEMENT_THEORY":"SGP4","INCLINATION":"53.0546","CLASSIFICATION_TYPE":"U","ECCENTRICITY":"0.00013000","MEAN_MOTION":"15.06397992","OBJECT_NAME":"STARLINK-2087","COUNTRY_CODE":"US","EPOCH":"2022-09-12T11:54:14.591808","RA_OF_ASC_NODE":"286.7087","PERIOD":"95.592","MEAN_MOTION_DOT":"-0.00000065","ARG_OF_PERICENTER":"85.6685","MEAN_ANOMALY":"274.4453","RCS_SIZE":"LARGE","TLE_LINE1":"1 47977U 21024A   22255.49600222 -.00000065  00000-0  14544-4 0  9998","FILE":"3570386","NORAD_CAT_ID":"47977","APOAPSIS":"548.120","LAUNCH_DATE":"2021-03-24","OBJECT_TYPE":"PAYLOAD","BSTAR":"0.00001454400000","SITE":"AFETR","ELEMENT_SET_NO":"999","PERIAPSIS":"546.319","CENTER_NAME":"EARTH","REV_AT_EPOCH":"8213","SEMIMAJOR_AXIS":"6925.355","TLE_LINE2":"2 47977  53.0546 286.7087 0001300  85.6685 274.4453 15.06397992 82133","REF_FRAME":"TEME","DECAY_DATE":null,"EPHEMERIS_TYPE":"0","OBJECT_ID":"2021-024A"},{"GP_ID":"212430969","MEAN_ELEMENT_THEORY":"SGP4","INCLINATION":"53.0539","MEAN_MOTION_DDOT":"0.0000000000000","TIME_SYSTEM":"UTC","OBJECT_NAME":"STARLINK-1647","COUNTRY_CODE":"US","CLASSIFICATION_TYPE":"U","ECCENTRICITY":"0.00014110","MEAN_MOTION":"15.06412766","EPOCH":"2022-09-12T20:22:26.719968","RA_OF_ASC_NODE":"295.1082","ARG_OF_PERICENTER":"72.3127","MEAN_ANOMALY":"287.8016","PERIOD":"95.591","MEAN_MOTION_DOT":"0.00003496","FILE":"3570509","NORAD_CAT_ID":"47978","RCS_SIZE":"LARGE","TLE_LINE1":"1 47978U 21024B   22255.84892037  .00003496  00000-0  25338-3 0  9997","LAUNCH_DATE":"2021-03-24","OBJECT_TYPE":"PAYLOAD","BSTAR":"0.00025338000000","APOAPSIS":"548.152","CENTER_NAME":"EARTH","REV_AT_EPOCH":"8256","SEMIMAJOR_AXIS":"6925.309","SITE":"AFETR","ELEMENT_SET_NO":"999","PERIAPSIS":"546.197","EPHEMERIS_TYPE":"0","OBJECT_ID":"2021-024B","TLE_LINE2":"2 47978  53.0539 295.1082 0001411  72.3127 287.8016 15.06412766 82569","DECAY_DATE":null,"REF_FRAME":"TEME"},{"PERIAPSIS":"545.976","SITE":"AFETR","ELEMENT_SET_NO":"999","SEMIMAJOR_AXIS":"6925.353","REV_AT_EPOCH":"8287","CENTER_NAME":"EARTH","REF_FRAME":"TEME","DECAY_DATE":null,"TLE_LINE2":"2 47979  53.0546 232.4807 0001794  59.5768 300.5398 15.06398395 82870","EPHEMERIS_TYPE":"0","OBJECT_ID":"2021-024C","TLE_LINE1":"1 47979U 21024C   22255.32231051  .00000064  00000-0  23205-4 0  9994","RCS_SIZE":"LARGE","NORAD_CAT_ID":"47979","FILE":"3570387","APOAPSIS":"548.461","BSTAR":"0.00002320500000","OBJECT_TYPE":"PAYLOAD","LAUNCH_DATE":"2021-03-24","RA_OF_ASC_NODE":"232.4807","EPOCH":"2022-09-12T07:44:07.628064","MEAN_MOTION_DOT":"0.00000064","PERIOD":"95.592","MEAN_ANOMALY":"300.5398","ARG_OF_PERICENTER":"59.5768","TIME_SYSTEM":"UTC","MEAN_MOTION_DDOT":"0.0000000000000","INCLINATION":"53.0546","MEAN_ELEMENT_THEORY":"SGP4","GP_ID":"212406730","MEAN_MOTION":"15.06398395","ECCENTRICITY":"0.00017940","CLASSIFICATION_TYPE":"U","COUNTRY_CODE":"US","OBJECT_NAME":"STARLINK-2325"},{"TLE_LINE1":"1 47980U 21024D   22255.87336065  .00002182  00000-0  16531-3 0  9993","RCS_SIZE":"LARGE","NORAD_CAT_ID":"47980","FILE":"3570509","APOAPSIS":"548.249","BSTAR":"0.00016531000000","LAUNCH_DATE":"2021-03-24","OBJECT_TYPE":"PAYLOAD","PERIAPSIS":"546.167","ELEMENT_SET_NO":"999","SITE":"AFETR","SEMIMAJOR_AXIS":"6925.343","REV_AT_EPOCH":"8375","CENTER_NAME":"EARTH","REF_FRAME":"TEME","DECAY_DATE":null,"TLE_LINE2":"2 47980  53.0551 210.1353 0001503  65.7687 294.3459 15.06401744 83753","OBJECT_ID":"2021-024D","EPHEMERIS_TYPE":"0","TIME_SYSTEM":"UTC","MEAN_MOTION_DDOT":"0.0000000000000","INCLINATION":"53.0551","MEAN_ELEMENT_THEORY":"SGP4","GP_ID":"212430496","MEAN_MOTION":"15.06401744","ECCENTRICITY":"0.00015030","CLASSIFICATION_TYPE":"U","COUNTRY_CODE":"US","OBJECT_NAME":"STARLINK-2312","RA_OF_ASC_NODE":"210.1353","EPOCH":"2022-09-12T20:57:38.360160","MEAN_MOTION_DOT":"0.00002182","PERIOD":"95.592","MEAN_ANOMALY":"294.3459","ARG_OF_PERICENTER":"65.7687"}];
